NORAD_CAT_ID,OBJECT_NAME,OBJECT_TYPE,EPOCH,MEAN_MOTION,ECCENTRICITY,INCLINATION,RA_OF_ASC_NODE,ARG_OF_PERICENTER,MEAN_ANOMALY,BSTAR,MEAN_MOTION_DOT,MEAN_MOTION_DDOT,TLE_LINE0,TLE_LINE1,TLE_LINE2,SEMIMAJOR_AXIS,PERIOD,APOGEE,PERIGEE,DECAYED
52677.0,STARLINK-4028,PAYLOAD,2024-06-18 19:24:49,15.08837045,0.0001453,53.2192,87.2753,92.2478,267.8681,3.6756e-05,2.97e-06,0.0,0 STARLINK-4028,1 52677U 22053X   24170.80890948  .00000297  00000-0  36756-4 0  9998,2 52677  53.2192  87.2753 0001453  92.2478 267.8681 15.08837045115802,6917.889,95.438,540.76,538.749,0.0
52677.0,STARLINK-4028,PAYLOAD,2024-06-19 11:18:40,15.08840462,0.0001462,53.2187,84.3012,90.3528,269.7631,4.1148e-05,3.67e-06,0.0,0 STARLINK-4028,1 52677U 22053X   24171.47130724  .00000367  00000-0  41148-4 0  9990,2 52677  53.2187  84.3012 0001462  90.3528 269.7631 15.08840462116317,6917.879,95.438,540.755,538.733,0.0
52677.0,STARLINK-4028,PAYLOAD,2024-06-19 22:26:23,15.08832172,0.0001496,53.2188,82.2196,90.2656,269.8507,-1.85e-06,-3.17e-06,0.0,0 STARLINK-4028,1 52677U 22053X   24171.93499489 -.00000317  00000-0 -18500-5 0  9991,2 52677  53.2188  82.2196 0001496  90.2656 269.8507 15.08832172116385,6917.904,95.438,540.804,538.734,0.0
52677.0,STARLINK-4028,PAYLOAD,2024-06-20 01:37:09,15.08833426,0.0001518,53.2187,81.625,90.1812,269.9354,8.4211e-06,-1.54e-06,0.0,0 STARLINK-4028,1 52677U 22053X   24172.06747427 -.00000154  00000-0  84211-5 0  9994,2 52677  53.2187  81.6250 0001518  90.1812 269.9354 15.08833426115996,6917.9,95.438,540.816,538.715,0.0
52677.0,STARLINK-4028,PAYLOAD,2024-06-20 11:09:28,15.08838005,0.0001505,53.2183,79.8406,90.1045,270.0119,4.3701e-05,4.08e-06,0.0,0 STARLINK-4028,1 52677U 22053X   24172.46491111  .00000408  00000-0  43701-4 0  9993,2 52677  53.2183  79.8406 0001505  90.1045 270.0119 15.08838005116461,6917.886,95.438,540.793,538.71,0.0
52677.0,STARLINK-4028,PAYLOAD,2024-06-20 22:17:10,15.08839953,0.0001582,53.2185,77.7589,90.1115,270.0059,3.0905e-05,2.04e-06,0.0,0 STARLINK-4028,1 52677U 22053X   24172.92859073  .00000204  00000-0  30905-4 0  9995,2 52677  53.2185  77.7589 0001582  90.1115 270.0059 15.08839953116539,6917.881,95.438,540.84,538.651,0.0
52677.0,STARLINK-4028,PAYLOAD,2024-06-20 23:52:33,15.08841269,0.0001553,53.2184,77.4615,90.4408,269.6762,8.582e-06,-1.51e-06,0.0,0 STARLINK-4028,1 52677U 22053X   24172.99483059 -.00000151  00000-0  85820-5 0  9998,2 52677  53.2184  77.4615 0001553  90.4408 269.6762 15.08841269116135,6917.877,95.437,540.816,538.667,0.0
52677.0,STARLINK-4028,PAYLOAD,2024-06-21 01:27:56,15.08841584,0.0001539,53.2184,77.1642,90.4596,269.6572,1.0682e-05,-1.18e-06,0.0,0 STARLINK-4028,1 52677U 22053X   24173.06107021 -.00000118  00000-0  10682-4 0  9995,2 52677  53.2184  77.1642 0001539  90.4596 269.6572 15.08841584116559,6917.876,95.437,540.805,538.676,0.0
52677.0,STARLINK-4028,PAYLOAD,2024-06-21 23:43:20,15.08839521,0.000147,53.2183,73.0007,92.5413,267.5747,4.4856e-05,4.26e-06,0.0,0 STARLINK-4028,1 52677U 22053X   24173.98842989  .00000426  00000-0  44856-4 0  9996,2 52677  53.2183  73.0007 0001470  92.5413 267.5747 15.08839521116697,6917.882,95.438,540.764,538.73,0.0
52677.0,STARLINK-4028,PAYLOAD,2024-06-22 20:23:21,15.08839041,0.0001462,53.2185,69.1346,93.3419,266.774,1.5239e-05,-4.5e-07,0.0,0 STARLINK-4028,1 52677U 22053X   24174.84955108 -.00000045  00000-0  15239-4 0  9991,2 52677  53.2185  69.1346 0001462  93.3419 266.7740 15.08839041116418,6917.883,95.438,540.76,538.737,0.0
52677.0,STARLINK-4028,PAYLOAD,2024-06-22 21:58:44,15.08839173,0.0001462,53.2185,68.8373,93.2919,266.8241,1.6128e-05,-3.1e-07,0.0,0 STARLINK-4028,1 52677U 22053X   24174.91579097 -.00000031  00000-0  16128-4 0  9991,2 52677  53.2185  68.8373 0001462  93.2919 266.8241 15.08839173116837,6917.883,95.438,540.759,538.737,0.0
52677.0,STARLINK-4028,PAYLOAD,2024-06-23 02:44:53,15.08840331,0.0001452,53.2185,67.9451,93.1599,266.9559,9.7269e-06,-1.33e-06,0.0,0 STARLINK-4028,1 52677U 22053X   24175.11451040 -.00000133  00000-0  97269-5 0  9990,2 52677  53.2185  67.9451 0001452  93.1599 266.9559 15.08840331116860,6917.879,95.438,540.749,538.74,0.0
52677.0,STARLINK-4028,PAYLOAD,2024-06-23 21:49:31,15.08838057,0.0001432,53.2185,64.3763,94.8499,265.2656,2.2069e-05,6.3e-07,0.0,0 STARLINK-4028,1 52677U 22053X   24175.90939099  .00000063  00000-0  22069-4 0  9998,2 52677  53.2185  64.3763 0001432  94.8499 265.2656 15.08838057116987,6917.886,95.438,540.742,538.761,0.0
52677.0,STARLINK-4028,PAYLOAD,2024-06-24 02:35:40,15.08838108,0.000144,53.2186,63.4845,93.9901,266.1255,2.133e-05,5.2e-07,0.0,0 STARLINK-4028,1 52677U 22053X   24176.10811120  .00000052  00000-0  21330-4 0  9993,2 52677  53.2186  63.4845 0001440  93.9901 266.1255 15.08838108116607,6917.886,95.438,540.747,538.755,0.0
52677.0,STARLINK-4028,PAYLOAD,2024-06-24 21:40:18,15.08834438,0.0001451,53.2188,59.9159,99.3503,260.7654,-8.4419e-06,-4.22e-06,0.0,0 STARLINK-4028,1 52677U 22053X   24176.90299577 -.00000422  00000-0 -84419-5 0  9998,2 52677  53.2188  59.9159 0001451  99.3503 260.7654 15.08834438117131,6917.897,95.438,540.766,538.759,0.0
52677.0,STARLINK-4028,PAYLOAD,2024-06-24 23:15:42,15.08833694,0.0001427,53.2188,59.6187,96.91,263.2054,-1.511e-05,-5.28e-06,0.0,0 STARLINK-4028,1 52677U 22053X   24176.96923677 -.00000528  00000-0 -15110-4 0  9997,2 52677  53.2188  59.6187 0001427  96.9100 263.2054 15.08833694116738,6917.9,95.438,540.752,538.777,0.0
52677.0,STARLINK-4028,PAYLOAD,2024-06-25 21:31:05,15.08837434,0.0001388,53.2188,55.4554,96.726,263.389,2.4766e-05,1.06e-06,0.0,0 STARLINK-4028,1 52677U 22053X   24177.89659513  .00000106  00000-0  24766-4 0  9992,2 52677  53.2188  55.4554 0001388  96.7260 263.3890 15.08837434117287,6917.888,95.438,540.713,538.793,0.0
52677.0,STARLINK-4028,PAYLOAD,2024-06-26 22:57:16,15.08836895,0.00013,53.2183,50.6946,82.2376,277.8764,4.3017e-05,3.97e-06,0.0,0 STARLINK-4028,1 52677U 22053X   24178.95643702  .00000397  00000-0  43017-4 0  9995,2 52677  53.2183  50.6946 0001300  82.2376 277.8764 15.08836895117039,6917.89,95.438,540.654,538.856,0.0
52677.0,STARLINK-4028,PAYLOAD,2024-06-27 22:48:03,15.08837858,0.0001326,53.2181,46.2389,86.7107,273.4037,1.5427e-05,-4.2e-07,0.0,0 STARLINK-4028,1 52677U 22053X   24179.95003934 -.00000042  00000-0  15427-4 0  9995,2 52677  53.2181  46.2389 0001326  86.7107 273.4037 15.08837858117594,6917.887,95.438,540.669,538.835,0.0
52677.0,STARLINK-4028,PAYLOAD,2024-06-28 08:20:21,15.08842796,0.000134,53.2179,44.4545,86.0339,274.0807,5.5405e-05,5.94e-06,0.0,0 STARLINK-4028,1 52677U 22053X   24180.34747487  .00000594  00000-0  55405-4 0  9999,2 52677  53.2179  44.4545 0001340  86.0339 274.0807 15.08842796117242,6917.872,95.437,540.664,538.81,0.0
52677.0,STARLINK-4028,PAYLOAD,2024-06-28 21:03:27,15.08841952,0.0001438,53.2182,42.0753,86.5247,273.5909,3.6715e-05,2.96e-06,0.0,0 STARLINK-4028,1 52677U 22053X   24180.87739589  .00000296  00000-0  36715-4 0  9993,2 52677  53.2182  42.0753 0001438  86.5247 273.5909 15.08841952117736,6917.874,95.437,540.734,538.745,0.0
52677.0,STARLINK-4028,PAYLOAD,2024-06-29 19:18:51,15.08837139,0.0001379,53.218,37.9118,87.5736,272.5414,3.7242e-05,3.05e-06,0.0,0 STARLINK-4028,1 52677U 22053X   24181.80475893  .00000305  00000-0  37242-4 0  9999,2 52677  53.2180  37.9118 0001379  87.5736 272.5414 15.08837139117462,6917.889,95.438,540.708,538.8,0.0
52677.0,STARLINK-4028,PAYLOAD,2024-06-29 20:54:14,15.08838701,0.0001228,53.2181,37.612,96.4068,263.7064,-2.962e-06,-3.35e-06,0.0,0 STARLINK-4028,1 52677U 22053X   24181.87099849 -.00000335  00000-0 -29620-5 0  9996,2 52677  53.2181  37.6120 0001228  96.4068 263.7064 15.08838701117888,6917.884,95.438,540.599,538.9,0.0
52677.0,STARLINK-4028,PAYLOAD,2024-06-30 14:23:29,15.08836246,0.0001426,53.2186,34.3459,80.3755,279.7398,-5.6282e-06,-3.77e-06,0.0,0 STARLINK-4028,1 52677U 22053X   24182.59964205 -.00000377  00000-0 -56282-5 0  9993,2 52677  53.2186  34.3459 0001426  80.3755 279.7398 15.08836246117998,6917.892,95.438,540.743,538.77,0.0
52677.0,STARLINK-4028,PAYLOAD,2024-06-30 20:45:01,15.08842501,0.0001408,53.2189,33.1545,98.5849,261.5303,4.7971e-05,4.76e-06,0.0,0 STARLINK-4028,1 52677U 22053X   24182.86459553  .00000476  00000-0  47971-4 0  9990,2 52677  53.2189  33.1545 0001408  98.5849 261.5303 15.08842501117625,6917.873,95.437,540.712,538.764,0.0
52677.0,STARLINK-4028,PAYLOAD,2024-07-01 14:14:15,15.08838937,0.0001422,53.2191,29.8833,98.9988,261.1165,8.4547e-05,1.058e-05,0.0,0 STARLINK-4028,1 52677U 22053X   24183.59323525  .00001058  00000-0  84547-4 0  9997,2 52677  53.2191  29.8833 0001422  98.9988 261.1165 15.08838937118142,6917.884,95.438,540.732,538.765,0.0
52677.0,STARLINK-4028,PAYLOAD,2024-07-01 20:35:48,15.08834369,0.0001213,53.2183,28.6952,90.5877,269.5254,1.8659e-05,9e-08,0.0,0 STARLINK-4028,1 52677U 22053X   24183.85820128  .00000009  00000-0  18659-4 0  9993,2 52677  53.2183  28.6952 0001213  90.5877 269.5254 15.08834369117779,6917.898,95.438,540.602,538.923,0.0
52677.0,STARLINK-4028,PAYLOAD,2024-07-02 14:05:03,15.08833488,0.0001257,53.2176,25.4239,90.8875,269.2261,-5.7503e-07,-2.97e-06,0.0,0 STARLINK-4028,1 52677U 22053X   24184.58684447 -.00000297  00000-0 -57503-6 0  9990,2 52677  53.2176  25.4239 0001257  90.8875 269.2261 15.08833488118297,6917.9,95.438,540.635,538.896,0.0
52677.0,STARLINK-4028,PAYLOAD,2024-07-02 20:26:34,15.08911681,8.98e-05,53.2181,24.2345,81.4337,278.6757,-0.0010203,-0.00016521,0.0,0 STARLINK-4028,1 52677U 22053X   24184.85179076 -.00016521  00000-0 -10203-2 0  9996,2 52677  53.2181  24.2345 0000898  81.4337 278.6757 15.08911681117922,6917.661,95.433,540.148,538.905,0.0
52677.0,STARLINK-4028,PAYLOAD,2024-07-02 23:37:22,15.08829711,0.0001218,53.2184,23.6381,93.6438,266.4693,3.1617e-05,2.15e-06,0.0,0 STARLINK-4028,1 52677U 22053X   24184.98428710  .00000215  00000-0  31617-4 0  9997,2 52677  53.2184  23.6381 0001218  93.6438 266.4693 15.08829711117940,6917.912,95.438,540.619,538.934,0.0
